LEDSAT                  
1 49069U 21073D   24193.13235304  .00016505  00000+0  64728-3 0  9997
2 49069  97.4363 264.1156 0019050 194.9420 165.1257 15.25658399160109
XW-3 (CAS-9)            
1 50466U 21131B   24193.58968671  .00000807  00000+0  27196-3 0  9990
2 50466  98.5285 278.5460 0005132  63.9481 296.2234 14.39710933133515
TEVEL-3                 
1 50988U 22002E   24193.48006316  .00333173  00000+0  17079-2 0  9998
2 50988  97.3697 270.8112 0007375 236.4791 123.5773 15.80356008138879
TEVEL-8                 
1 50989U 22002F   24193.46305579  .00329465  00000+0  17195-2 0  9998
2 50989  97.3730 270.8827 0007427 237.0582 122.9972 15.79968258138861
TEVEL-5                 
1 50998U 22002Q   24193.59048492  .00943659  43651-3  18204-2 0  9992
2 50998  97.3669 272.8784 0012484 252.3892 107.6023 16.00365665139023
TEVEL-6                 
1 50999U 22002R   24193.48759912  .00875292  35921-3  18606-2 0  9991
2 50999  97.3604 272.6851 0011413 249.2091 110.7964 15.98650845139003
TEVEL-1                 
1 51013U 22002AF  24193.51789940  .00329158  00000+0  17264-2 0  9997
2 51013  97.3698 270.6844 0007510 234.8281 125.2284 15.79858975138871
TEVEL-7                 
1 51062U 22002CG  24193.25309716  .00326754  00000+0  16801-2 0  9996
2 51062  97.3706 270.6443 0007462 234.7205 125.3365 15.80304426138837
TEVEL-4                 
1 51063U 22002CH  24193.37810467  .00288531  00000+0  15781-2 0  9996
2 51063  97.3713 270.6227 0007283 234.0276 126.0316 15.79033374138842
TEVEL-2                 
1 51069U 22002CP  24193.53993062  .00326353  00000+0  16684-2 0  9991
2 51069  97.3695 270.8437 0007462 235.8443 124.2118 15.80432488138881
GREENCUBE               
1 53106U 22080B   24192.31461556 -.00000003  00000+0  00000+0 0  9998
2 53106  70.1322 184.4864 0007578 102.1342 258.0167  6.42557683 46754
KAI-1 (RS26S)           
1 53378U 22096J   24193.27997225  .00201169  00000+0  11155-2 0  9990
2 53378  97.3924 113.7579 0006590 128.5245 231.6614 15.78960639108020
CAS-5A (FO-118)         
1 54684U 22167C   24193.58063671  .00028214  00000+0  92262-3 0  9990
2 54684  97.6080 339.0142 0009818  64.5471 295.6784 15.31632944 88032
STRATOSAT-TK 1 (RS52S)  
1 57167U 23091B   24193.56144866  .00015616  00000+0  87993-3 0  9997
2 57167  97.6093 246.5762 0015251  41.9471 318.2925 15.13194124 57243
UMKA 1 (RS40S)          
1 57172U 23091G   24193.55565223  .00006488  00000+0  42549-3 0  9991
2 57172  97.6099 245.3575 0017398  43.4860 316.7737 15.07896016 57164
CUBESX-HSE 3 (RS42S)    
1 57178U 23091N   24193.55470030  .00008933  00000+0  56082-3 0  9992
2 57178  97.6136 245.8464 0017566  37.7678 322.4780 15.09390566 57189
MONITOR-4 (RS57S)       
1 57182U 23091S   24193.55011903  .00008021  00000+0  51090-3 0  9999
2 57182  97.6125 245.6413 0018073  38.9314 321.3212 15.08885777 57177
MONITOR-2 (RS39S)       
1 57184U 23091U   24193.58443972  .00004369  00000+0  28782-3 0  9992
2 57184  97.6123 245.7754 0014637  33.9900 326.2263 15.07955524 57182
SVYATOBOR 1 (RS60S)     
1 57187U 23091X   24193.58140138  .00006810  00000+0  42683-3 0  9992
2 57187  97.6125 246.2465 0013840  31.2806 328.9243 15.09592171 57211
VIZARD-METEO (RS38S)    
1 57189U 23091Z   24193.51393628  .00008751  00000+0  52564-3 0  9996
2 57189  97.6119 246.6060 0012572  29.6256 330.5683 15.11072048 57230
NANOZOND 1 (RS49S)      
1 57190U 23091AA  24193.60579368  .00013127  00000+0  72885-3 0  9996
2 57190  97.6097 247.2785 0010894  35.4894 324.7060 15.13812692 57295
POLYTECH-UNIVERSE 3 (R*)
1 57191U 23091AB  24193.58995657  .00004756  00000+0  31263-3 0  9990
2 57191  97.6092 245.4531 0020445  48.8691 311.4298 15.07905958 57170
UTMN 2 (RS27S)          
1 57203U 23091AP  24193.57917828  .00007968  00000+0  48588-3 0  9993
2 57203  97.6117 246.5168 0012950  29.5181 330.6777 15.10550187 57238
ARCCUBE 1 (RS25S)       
1 57205U 23091AR  24193.56479087  .00016434  00000+0  88045-3 0  9994
2 57205  97.6065 247.3785 0010846  36.0000 324.1960 15.15033351 57305
KUZGTU 1 (RS47S)        
1 57217U 23091AV  24193.56568215  .00008918  00000+0  56228-3 0  9995
2 57217  97.6107 245.7098 0017484  38.8522 321.3960 15.09233671 57183
HADES-D (SO-121)        
1 58567U 23174CY  24193.17404223  .00052645  00000+0  16722-2 0  9991
2 58567  97.4519 269.0171 0012835 146.4083 213.7975 15.32387981 37459
